{"type": "FeatureCollection", "features": [{"type": "Feature", "properties": {"norad_id": 66549, "name": "SHIJIAN-28 (SJ-28)", "group": "last-30-days", "lat": 3.263771346911137, "lon": -44.218768675576776, "alt_km": 35787.40004311583, "timestamp": "2025-12-25T07:00:32.761434+00:00", "meta": {"OBJECT_NAME": "SHIJIAN-28 (SJ-28)", "OBJECT_ID": "2025-277A", "EPOCH": "2025-12-24T20:03:51.590592", "MEAN_MOTION": 1.00265315, "ECCENTRICITY": 0.00010023, "INCLINATION": 4.9889, "RA_OF_ASC_NODE": 274.7663, "ARG_OF_PERICENTER": 128.8439, "MEAN_ANOMALY": 107.695, "EPHEMERIS_TYPE": 0, "CLASSIFICATION_TYPE": "U", "NORAD_CAT_ID": 66549, "ELEMENT_SET_NO": 999, "REV_AT_EPOCH": 40, "BSTAR": 0, "MEAN_MOTION_DOT": -3.37e-06, "MEAN_MOTION_DDOT": 0}, "tle": {"line1": "1 66549U 25277A   25358.83601378 -.00000337  00000+0  00000+0 0  9994", "line2": "2 66549   4.9889 274.7663 0001002 128.8439 107.6950  1.00265315   408"}}, "geometry": {"type": "Point", "coordinates": [-44.218768675576776, 3.263771346911137]}}, {"type": "Feature", "properties": {"norad_id": 66550, "name": "CZ-7A R/B", "group": "last-30-days", "lat": 4.896932565955714, "lon": -77.92633214292226, "alt_km": 21913.104510117966, "timestamp": "2025-12-25T07:00:32.761485+00:00", "meta": {"OBJECT_NAME": "CZ-7A R/B", "OBJECT_ID": "2025-277B", "EPOCH": "2025-12-23T05:53:12.433056", "MEAN_MOTION": 3.27661077, "ECCENTRICITY": 0.66094342, "INCLINATION": 14.3426, "RA_OF_ASC_NODE": 263.9223, "ARG_OF_PERICENTER": 200.4471, "MEAN_ANOMALY": 110.5172, "EPHEMERIS_TYPE": 0, "CLASSIFICATION_TYPE": "U", "NORAD_CAT_ID": 66550, "ELEMENT_SET_NO": 999, "REV_AT_EPOCH": 65, "BSTAR": 0.0068493476, "MEAN_MOTION_DOT": 0.10979967, "MEAN_MOTION_DDOT": 1.8894821e-05}, "tle": {"line1": "1 66550U 25277B   25357.24528279  .10979967  18895-4  68493-2 0  9991", "line2": "2 66550  14.3426 263.9223 6609434 200.4471 110.5172  3.27661077   658"}}, "geometry": {"type": "Point", "coordinates": [-77.92633214292226, 4.896932565955714]}}, {"type": "Feature", "properties": {"norad_id": 66554, "name": "GLOBAL-33", "group": "last-30-days", "lat": -34.86502573387282, "lon": -144.78585672382124, "alt_km": 471.8391927918483, "timestamp": "2025-12-25T07:00:32.761517+00:00", "meta": {"OBJECT_NAME": "GLOBAL-33", "OBJECT_ID": "2025-267A", "EPOCH": "2025-12-24T20:34:58.688544", "MEAN_MOTION": 15.31743284, "ECCENTRICITY": 0.00046584, "INCLINATION": 42.0212, "RA_OF_ASC_NODE": 347.033, "ARG_OF_PERICENTER": 176.2786, "MEAN_ANOMALY": 183.8086, "EPHEMERIS_TYPE": 0, "CLASSIFICATION_TYPE": "U", "NORAD_CAT_ID": 66554, "ELEMENT_SET_NO": 999, "REV_AT_EPOCH": 526, "BSTAR": 0.00046763197, "MEAN_MOTION_DOT": 0.00014423, "MEAN_MOTION_DDOT": 0}, "tle": {"line1": "1 66554U 25267A   25358.85762371  .00014423  00000+0  46763-3 0  9992", "line2": "2 66554  42.0212 347.0330 0004658 176.2786 183.8086 15.31743284  5264"}}, "geometry": {"type": "Point", "coordinates": [-144.78585672382124, -34.86502573387282]}}, {"type": "Feature", "properties": {"norad_id": 66557, "name": "STARLINK-35699", "group": "last-30-days", "lat": 31.72785437310522, "lon": 89.36004221564582, "alt_km": 442.3560210601481, "timestamp": "2025-12-25T07:00:32.761531+00:00", "meta": {"OBJECT_NAME": "STARLINK-35699", "OBJECT_ID": "2025-268A", "EPOCH": "2025-12-24T22:00:03.000096", "MEAN_MOTION": 15.41520627, "ECCENTRICITY": 0.00016411, "INCLINATION": 43.0005, "RA_OF_ASC_NODE": 49.957, "ARG_OF_PERICENTER": 283.0271, "MEAN_ANOMALY": 203.1778, "EPHEMERIS_TYPE": 0, "CLASSIFICATION_TYPE": "U", "NORAD_CAT_ID": 66557, "ELEMENT_SET_NO": 999, "REV_AT_EPOCH": 611, "BSTAR": -0.053072776, "MEAN_MOTION_DOT": -0.02026387, "MEAN_MOTION_DDOT": 0}, "tle": {"line1": "1 66557U 25268A   25358.91670139 -.02026387  00000+0 -53073-1 0  9999", "line2": "2 66557  43.0005  49.9570 0001641 283.0271 203.1778 15.41520627  6111"}}, "geometry": {"type": "Point", "coordinates": [89.36004221564582, 31.72785437310522]}}, {"type": "Feature", "properties": {"norad_id": 66558, "name": "STARLINK-35695", "group": "last-30-days", "lat": 37.497079465369005, "lon": 103.18327759081595, "alt_km": 439.0867027707991, "timestamp": "2025-12-25T07:00:32.761543+00:00", "meta": {"OBJECT_NAME": "STARLINK-35695", "OBJECT_ID": "2025-268B", "EPOCH": "2025-12-24T22:00:03.000096", "MEAN_MOTION": 15.4236485, "ECCENTRICITY": 0.00014607, "INCLINATION": 43.0006, "RA_OF_ASC_NODE": 49.9291, "ARG_OF_PERICENTER": 284.0996, "MEAN_ANOMALY": 213.7191, "EPHEMERIS_TYPE": 0, "CLASSIFICATION_TYPE": "U", "NORAD_CAT_ID": 66558, "ELEMENT_SET_NO": 999, "REV_AT_EPOCH": 611, "BSTAR": -0.052015945, "MEAN_MOTION_DOT": -0.02041518, "MEAN_MOTION_DDOT": 0}, "tle": {"line1": "1 66558U 25268B   25358.91670139 -.02041518  00000+0 -52016-1 0  9999", "line2": "2 66558  43.0006  49.9291 0001460 284.0996 213.7191 15.42364850  6118"}}, "geometry": {"type": "Point", "coordinates": [103.18327759081595, 37.497079465369005]}}, {"type": "Feature", "properties": {"norad_id": 66559, "name": "STARLINK-35419", "group": "last-30-days", "lat": 36.45993217404946, "lon": 175.16866211321442, "alt_km": 424.3024201369544, "timestamp": "2025-12-25T07:00:32.761556+00:00", "meta": {"OBJECT_NAME": "STARLINK-35419", "OBJECT_ID": "2025-268C", "EPOCH": "2025-12-24T22:00:03.000096", "MEAN_MOTION": 15.47499652, "ECCENTRICITY": 0.00011616, "INCLINATION": 43.0007, "RA_OF_ASC_NODE": 49.8086, "ARG_OF_PERICENTER": 275.6069, "MEAN_ANOMALY": 271.3234, "EPHEMERIS_TYPE": 0, "CLASSIFICATION_TYPE": "U", "NORAD_CAT_ID": 66559, "ELEMENT_SET_NO": 999, "REV_AT_EPOCH": 611, "BSTAR": -0.044312217, "MEAN_MOTION_DOT": -0.02072349, "MEAN_MOTION_DDOT": 0}, "tle": {"line1": "1 66559U 25268C   25358.91670139 -.02072349  00000+0 -44312-1 0  9996", "line2": "2 66559  43.0007  49.8086 0001161 275.6069 271.3234 15.47499652  6118"}}, "geometry": {"type": "Point", "coordinates": [175.16866211321442, 36.45993217404946]}}, {"type": "Feature", "properties": {"norad_id": 66560, "name": "STARLINK-35411", "group": "last-30-days", "lat": 33.63367592109216, "lon": -177.9416888770913, "alt_km": 423.0891973161142, "timestamp": "2025-12-25T07:00:32.761570+00:00", "meta": {"OBJECT_NAME": "STARLINK-35411", "OBJECT_ID": "2025-268D", "EPOCH": "2025-12-24T22:00:03.000096", "MEAN_MOTION": 15.48030535, "ECCENTRICITY": 0.00010717, "INCLINATION": 43.0004, "RA_OF_ASC_NODE": 49.7951, "ARG_OF_PERICENTER": 274.1886, "MEAN_ANOMALY": 278.3341, "EPHEMERIS_TYPE": 0, "CLASSIFICATION_TYPE": "U", "NORAD_CAT_ID": 66560, "ELEMENT_SET_NO": 999, "REV_AT_EPOCH": 611, "BSTAR": -0.043504981, "MEAN_MOTION_DOT": -0.02072874, "MEAN_MOTION_DDOT": 0}, "tle": {"line1": "1 66560U 25268D   25358.91670139 -.02072874  00000+0 -43505-1 0  9994", "line2": "2 66560  43.0004  49.7951 0001071 274.1886 278.3341 15.48030535  6116"}}, "geometry": {"type": "Point", "coordinates": [-177.9416888770913, 33.63367592109216]}}, {"type": "Feature", "properties": {"norad_id": 66561, "name": "STARLINK-35305", "group": "last-30-days", "lat": 24.871492143500788, "lon": -162.26290594147824, "alt_km": 419.384947122584, "timestamp": "2025-12-25T07:00:32.761581+00:00", "meta": {"OBJECT_NAME": "STARLINK-35305", "OBJECT_ID": "2025-268E", "EPOCH": "2025-12-24T22:00:03.000096", "MEAN_MOTION": 15.49709019, "ECCENTRICITY": 0.00010199, "INCLINATION": 43.0004, "RA_OF_ASC_NODE": 49.7605, "ARG_OF_PERICENTER": 271.4038, "MEAN_ANOMALY": 295.0782, "EPHEMERIS_TYPE": 0, "CLASSIFICATION_TYPE": "U", "NORAD_CAT_ID": 66561, "ELEMENT_SET_NO": 999, "REV_AT_EPOCH": 611, "BSTAR": -0.041141409, "MEAN_MOTION_DOT": -0.02079736, "MEAN_MOTION_DDOT": 0}, "tle": {"line1": "1 66561U 25268E   25358.91670139 -.02079736  00000+0 -41141-1 0  9993", "line2": "2 66561  43.0004  49.7605 0001019 271.4038 295.0782 15.49709019  6110"}}, "geometry": {"type": "Point", "coordinates": [-162.26290594147824, 24.871492143500788]}}, {"type": "Feature", "properties": {"norad_id": 66562, "name": "STARLINK-35579", "group": "last-30-days", "lat": 29.331433880393483, "lon": -169.4936819967251, "alt_km": 421.2805113236045, "timestamp": "2025-12-25T07:00:32.761592+00:00", "meta": {"OBJECT_NAME": "STARLINK-35579", "OBJECT_ID": "2025-268F", "EPOCH": "2025-12-24T22:00:03.000096", "MEAN_MOTION": 15.48869294, "ECCENTRICITY": 0.00011691, "INCLINATION": 43.001, "RA_OF_ASC_NODE": 49.7765, "ARG_OF_PERICENTER": 271.9207, "MEAN_ANOMALY": 287.8626, "EPHEMERIS_TYPE": 0, "CLASSIFICATION_TYPE": "U", "NORAD_CAT_ID": 66562, "ELEMENT_SET_NO": 999, "REV_AT_EPOCH": 611, "BSTAR": -0.042281079, "MEAN_MOTION_DOT": -0.02075057, "MEAN_MOTION_DDOT": 0}, "tle": {"line1": "1 66562U 25268F   25358.91670139 -.02075057  00000+0 -42281-1 0  9992", "line2": "2 66562  43.0010  49.7765 0001169 271.9207 287.8626 15.48869294  6111"}}, "geometry": {"type": "Point", "coordinates": [-169.4936819967251, 29.331433880393483]}}, {"type": "Feature", "properties": {"norad_id": 66563, "name": "STARLINK-35437", "group": "last-30-days", "lat": 20.440139683274108, "lon": -156.0223088981853, "alt_km": 417.5185968161077, "timestamp": "2025-12-25T07:00:32.761603+00:00", "meta": {"OBJECT_NAME": "STARLINK-35437", "OBJECT_ID": "2025-268G", "EPOCH": "2025-12-24T22:00:03.000096", "MEAN_MOTION": 15.50545051, "ECCENTRICITY": 0.00010809, "INCLINATION": 43.0009, "RA_OF_ASC_NODE": 49.745, "ARG_OF_PERICENTER": 268.0892, "MEAN_ANOMALY": 304.5322, "EPHEMERIS_TYPE": 0, "CLASSIFICATION_TYPE": "U", "NORAD_CAT_ID": 66563, "ELEMENT_SET_NO": 999, "REV_AT_EPOCH": 611, "BSTAR": -0.039880519, "MEAN_MOTION_DOT": -0.02077613, "MEAN_MOTION_DDOT": 0}, "tle": {"line1": "1 66563U 25268G   25358.91670139 -.02077613  00000+0 -39881-1 0  9995", "line2": "2 66563  43.0009  49.7450 0001080 268.0892 304.5322 15.50545051  6115"}}, "geometry": {"type": "Point", "coordinates": [-156.0223088981853, 20.440139683274108]}}]}